{
  "norad_id": 45986,
  "name": "EXPRESS 80",
  "history": [
    {
      "epoch": "2026-04-21T04:42:56.208096Z",
      "apogee_km": 35795.21825194032,
      "perigee_km": 35777.939151445775,
      "latitude_deg": 0.0426743299676633,
      "longitude_deg": 79.98988338660007,
      "height_km": 35794.05289872758,
      "semi_major_axis_km": 42164.71570169305,
      "eccentricity": 0.0002049,
      "inclination_deg": 0.0236,
      "raan_deg": 266.8062,
      "arg_perigee_deg": 250.8208,
      "mean_anomaly_deg": 202.3824,
      "mean_motion_rev_day": 1.00271843
    },
    {
      "epoch": "2026-04-22T04:38:59.485920Z",
      "apogee_km": 35795.68250886401,
      "perigee_km": 35777.56852688634,
      "latitude_deg": 0.03909731691120807,
      "longitude_deg": 79.99325438128851,
      "height_km": 35794.46801390784,
      "semi_major_axis_km": 42164.76251787518,
      "eccentricity": 0.0002148,
      "inclination_deg": 0.0216,
      "raan_deg": 266.6302,
      "arg_perigee_deg": 250.7097,
      "mean_anomaly_deg": 202.6663,
      "mean_motion_rev_day": 1.00271676
    },
    {
      "epoch": "2026-04-23T04:35:02.882112Z",
      "apogee_km": 35795.91827975823,
      "perigee_km": 35777.38938407505,
      "latitude_deg": 0.03595887542702802,
      "longitude_deg": 79.99618265082869,
      "height_km": 35794.66655756691,
      "semi_major_axis_km": 42164.790831916645,
      "eccentricity": 0.00021972,
      "inclination_deg": 0.0199,
      "raan_deg": 266.9088,
      "arg_perigee_deg": 250.0777,
      "mean_anomaly_deg": 203.0169,
      "mean_motion_rev_day": 1.00271575
    },
    {
      "epoch": "2026-04-24T04:31:09.954624Z",
      "apogee_km": 35796.42237743276,
      "perigee_km": 35778.85611504858,
      "latitude_deg": 0.03661525538878665,
      "longitude_deg": 79.98377090286758,
      "height_km": 35794.64813366976,
      "semi_major_axis_km": 42165.776246240675,
      "eccentricity": 0.0002083,
      "inclination_deg": 0.0214,
      "raan_deg": 266.9041,
      "arg_perigee_deg": 242.0753,
      "mean_anomaly_deg": 211.0244,
      "mean_motion_rev_day": 1.0026806
    },
    {
      "epoch": "2026-04-24T04:33:17.812800Z",
      "apogee_km": 35783.00886905482,
      "perigee_km": 35696.08470854414,
      "latitude_deg": 0.03770170282031558,
      "longitude_deg": 79.44950828153262,
      "height_km": 35735.75281209623,
      "semi_major_axis_km": 42117.683788799484,
      "eccentricity": 0.00103192,
      "inclination_deg": 0.0234,
      "raan_deg": 276.1549,
      "arg_perigee_deg": 169.794,
      "mean_anomaly_deg": 274.1604,
      "mean_motion_rev_day": 1.00439847
    },
    {
      "epoch": "2026-04-25T04:27:09.813600Z",
      "apogee_km": 35792.55459481758,
      "perigee_km": 35766.4151829416,
      "latitude_deg": 0.04127395018593662,
      "longitude_deg": 80.00154749132517,
      "height_km": 35792.06124851911,
      "semi_major_axis_km": 42157.62188887959,
      "eccentricity": 0.00031002,
      "inclination_deg": 0.027,
      "raan_deg": 249.3709,
      "arg_perigee_deg": 289.3898,
      "mean_anomaly_deg": 181.2309,
      "mean_motion_rev_day": 1.00297153
    },
    {
      "epoch": "2026-04-27T04:19:19.204032Z",
      "apogee_km": 35793.28052953097,
      "perigee_km": 35779.74567684785,
      "latitude_deg": 0.031777657730512374,
      "longitude_deg": 79.99635166988838,
      "height_km": 35792.47959369374,
      "semi_major_axis_km": 42164.650103189415,
      "eccentricity": 0.0001605,
      "inclination_deg": 0.0135,
      "raan_deg": 259.5644,
      "arg_perigee_deg": 297.8444,
      "mean_anomaly_deg": 162.5788,
      "mean_motion_rev_day": 1.00272077
    },
    {
      "epoch": "2026-04-28T04:15:21.045024Z",
      "apogee_km": 35793.90503079597,
      "perigee_km": 35779.19798744399,
      "latitude_deg": 0.04411899661480693,
      "longitude_deg": 80.00578082726183,
      "height_km": 35793.09015684906,
      "semi_major_axis_km": 42164.68850911999,
      "eccentricity": 0.0001744,
      "inclination_deg": 0.025,
      "raan_deg": 273.3615,
      "arg_perigee_deg": 283.7238,
      "mean_anomaly_deg": 162.9044,
      "mean_motion_rev_day": 1.0027194
    },
    {
      "epoch": "2026-04-29T04:11:25.795104Z",
      "apogee_km": 35793.93191563406,
      "perigee_km": 35779.250157331764,
      "latitude_deg": 0.043102429997401506,
      "longitude_deg": 80.00311467607331,
      "height_km": 35793.148445704195,
      "semi_major_axis_km": 42164.72803648291,
      "eccentricity": 0.0001741,
      "inclination_deg": 0.0222,
      "raan_deg": 275.3747,
      "arg_perigee_deg": 280.8424,
      "mean_anomaly_deg": 163.7757,
      "mean_motion_rev_day": 1.00271799
    }
  ]
}